STARLINK-3788           
1 52271U 22041L   25101.42965025 -.00000396  00000+0 -67978-5 0  9999
2 52271  53.2167 160.6950 0001603  83.8438 276.2737 15.08840805165425
STARLINK-3781           
1 52272U 22041M   25100.49589333 -.00000225  00000+0  39535-5 0  9998
2 52272  53.2163 164.9230 0001520  84.3493 275.7672 15.08835319164060
STARLINK-3782           
1 52273U 22041N   25101.39476428 -.00005540  00000+0 -33015-3 0  9990
2 52273  53.2158 151.2337 0001283  79.0270 281.0866 15.08853619165555
STARLINK-3790           
1 52274U 22041P   25101.41493790  .00001412  00000+0  10681-3 0  9991
2 52274  53.2162 160.7620 0001340  71.9786 288.1352 15.08842678165436
STARLINK-3784           
1 52275U 22041Q   25100.49493184  .00000380  00000+0  41963-4 0  9997
2 52275  53.2174 164.8865 0001601  94.4656 265.6519 15.08838558164067
STARLINK-3778           
1 52276U 22041R   25101.14629258  .00001492  00000+0  11180-3 0  9996
2 52276  53.2170 161.9658 0001428  98.7076 261.4077 15.08834642165381
STARLINK-3780           
1 52278U 22041T   25101.40757684  .00000020  00000+0  19369-4 0  9996
2 52278  53.2168 160.7926 0001517  95.4480 264.6686 15.08837751165427
STARLINK-3764           
1 52280U 22041V   25100.86660606 -.00001307  00000+0 -64015-4 0  9994
2 52280  53.2160 163.2218 0001373  82.8369 277.2779 15.08839331164125
STARLINK-3779           
1 52281U 22041W   25101.41224471 -.00003101  00000+0 -17693-3 0  9996
2 52281  53.2155 160.7669 0001394  97.8783 262.2367 15.08815810165428
STARLINK-3783           
1 52282U 22041X   25101.12513169 -.00000358  00000+0 -43883-5 0  9993
2 52282  53.2164 152.0603 0001279  91.1257 268.9881 15.08827069165519
STARLINK-3789           
1 52283U 22041Y   25101.40389726  .00003061  00000+0  21043-3 0  9999
2 52283  53.2174 160.8116 0001652 105.6761 254.4414 15.08824845165424
STARLINK-3561           
1 52284U 22041Z   25101.38273787  .00000032  00000+0  20107-4 0  9992
2 52284  53.2174 150.9039 0001569  85.5423 274.5748 15.08832880165552
STARLINK-3775           
1 52285U 22041AA  25101.46645382  .00000640  00000+0  58288-4 0  9992
2 52285  53.2166 160.5297 0002098  96.4293 263.6939 15.08839250165448
STARLINK-3802           
1 52286U 22041AB  25100.84545146  .00000304  00000+0  37202-4 0  9991
2 52286  53.2165 153.3182 0001387  90.7212 269.3939 15.08838562164255
STARLINK-3822           
1 52287U 22041AC  25100.86292610  .00000131  00000+0  26345-4 0  9993
2 52287  53.2154 163.2388 0001339  89.8633 270.2512 15.08839334164127
STARLINK-3776           
1 52288U 22041AD  25100.51057636 -.00001066  00000+0 -48925-4 0  9991
2 52288  53.2170 154.8218 0001513  91.5564 268.5602 15.08831463164205
STARLINK-3751           
1 52289U 22041AE  25101.12145431  .00000409  00000+0  43769-4 0  9990
2 52289  53.2165 152.0763 0001467  89.7290 270.3870 15.08839574165512
STARLINK-3772           
1 52290U 22041AF  25101.42785087  .00000015  00000+0  19059-4 0  9990
2 52290  53.2169 150.7021 0001554  88.4094 271.7076 15.08833285165555
STARLINK-3773           
1 52291U 22041AG  25101.58335648  .00038870  00000+0  56477-3 0  9996
2 52291  53.1930 106.4009 0007589 336.2849 335.6197 15.55405492166205
STARLINK-3753           
1 52292U 22041AH  25100.42961011 -.00000196  00000+0  57844-5 0  9990
2 52292  53.2162 155.1838 0001332  90.0013 270.1132 15.08836320164197
STARLINK-3771           
1 52293U 22041AJ  25101.43521904  .00006093  00000+0  40064-3 0  9991
2 52293  53.2154 150.6807 0001259  98.3938 261.7197 15.08835606165576
STARLINK-3777           
1 52294U 22041AK  25101.15457122  .00002140  00000+0  15257-3 0  9996
2 52294  53.2165 151.9282 0001506 100.7364 259.3798 15.08826944165526
STARLINK-3765           
1 52295U 22041AL  25100.43697409 -.00000376  00000+0 -55438-5 0  9999
2 52295  53.2171 155.1498 0001687  93.2082 266.9103 15.08828504164192
STARLINK-3766           
1 52296U 22041AM  25101.40848897  .00001561  00000+0  11614-3 0  9998
2 52296  53.2167 150.7888 0001581 101.8198 258.2971 15.08844442165567
STARLINK-3758           
1 52297U 22041AN  25101.16193921 -.00004449  00000+0 -26164-3 0  9999
2 52297  53.2158 151.8946 0001314  95.7455 264.3687 15.08839042165524
STARLINK-3760           
1 52298U 22041AP  25100.44060681 -.00000365  00000+0 -48431-5 0  9992
2 52298  53.2172 154.7492 0001496  86.7673 273.3490 15.08832290164206
STARLINK-3769           
1 52300U 22041AR  25101.39745404 -.00000833  00000+0 -34228-4 0  9992
2 52300  53.2169 150.8383 0001632  82.1674 277.9503 15.08832476165566
STARLINK-3768           
1 52301U 22041AS  25101.15087709  .00002178  00000+0  15483-3 0  9997
2 52301  53.2175 151.9435 0001457  91.0020 269.1139 15.08850465165514
STARLINK-3564           
1 52302U 22041AT  25100.45997391 -.00001802  00000+0 -95125-4 0  9994
2 52302  53.2166 145.0445 0001525  96.5825 263.5341 15.08842202164331
STARLINK-3742           
1 52303U 22041AU  25100.47377393  .00002477  00000+0  17368-3 0  9990
2 52303  53.2167 154.9831 0001395  82.8326 277.2825 15.08838635165425
STARLINK-3744           
1 52304U 22041AV  25100.85373069 -.00000383  00000+0 -60010-5 0  9999
2 52304  53.2154 143.2769 0001391  91.7779 268.3372 15.08835969165616
STARLINK-3724           
1 52305U 22041AW  25101.40482627 -.00001611  00000+0 -83149-4 0  9995
2 52305  53.2153 150.9099 0001405  88.4522 271.6631 15.08832394165560
STARLINK-3747           
1 52306U 22041AX  25100.85005106  .00000383  00000+0  42120-4 0  9994
2 52306  53.2160 143.2946 0001240  92.9135 267.1999 15.08840055165618
STARLINK-3755           
1 52307U 22041AY  25101.12880851  .00000848  00000+0  71367-4 0  9995
2 52307  53.2164 152.0426 0001556  85.3171 274.7999 15.08843985165518
STARLINK-3756           
1 52309U 22041BA  25100.38269019  .00002503  00000+0  17529-3 0  9990
2 52309  53.2171 145.3925 0001657  88.4835 271.6347 15.08835982165544
STARLINK-3688           
1 52310U 22041BB  25100.44526108 -.00000969  00000+0 -42770-4 0  9997
2 52310  53.2164 145.1790 0001445  83.8219 276.2938 15.08839169165555
STARLINK-3750           
1 52311U 22041BC  25101.43516299  .00000137  00000+0  26707-4 0  9995
2 52311  53.2169 140.6658 0001741 109.6330 250.4850 15.08837597165701
STARLINK-3752           
1 52312U 22041BD  25101.39474029  .00003553  00000+0  24122-3 0  9998
2 52312  53.2153 140.8007 0001532  52.4473 307.6659 15.08839350165707
STARLINK-3749           
1 52313U 22041BE  25101.39837167 -.00001798  00000+0 -94955-4 0  9998
2 52313  53.2147 140.8361 0001313  93.5178 266.5964 15.08831159165700
STARLINK-3889           
1 52331U 22045A   25100.79115936  .00001029  00000+0  82691-4 0  9997
2 52331  53.2163 263.5585 0001168  96.2068 263.9058 15.08844615165385
STARLINK-3831           
1 52332U 22045B   25101.13438484  .00021510  00000+0  13657-2 0  9994
2 52332  53.2166 262.0300 0000832  79.3370 280.7715 15.08833092165433
STARLINK-3847           
1 52333U 22045C   25100.73231304 -.00003656  00000+0 -21191-3 0  9998
2 52333  53.2173 263.8235 0001372  94.6685 265.4464 15.08808600165367
STARLINK-3880           
1 52334U 22045D   25100.78748038  .00000829  00000+0  70154-4 0  9992
2 52334  53.2167 263.5768 0001347  91.0539 269.0608 15.08843523165374
STARLINK-3814           
1 52335U 22045E   25100.78380941  .00000348  00000+0  39937-4 0  9998
2 52335  53.2158 263.5929 0001245  82.2527 277.8607 15.08836925165385
STARLINK-3823           
1 52336U 22045F   25100.75802580  .00000788  00000+0  67609-4 0  9999
2 52336  53.2179 263.5039 0001405  95.1754 264.9399 15.08835752165386
STARLINK-3797           
1 52337U 22045G   25100.79484682 -.00001079  00000+0 -49710-4 0  9992
2 52337  53.2173 263.5417 0001256  95.5992 264.5144 15.08838797165389
STARLINK-3792           
1 52339U 22045J   25100.80216585 -.00000341  00000+0 -33295-5 0  9994
2 52339  53.2166 263.1543 0001247  96.4660 263.6474 15.08837258165399
STARLINK-3818           
1 52340U 22045K   25100.73320451  .00000373  00000+0  41523-4 0  9991
2 52340  53.2176 253.8183 0001285  92.7542 267.3598 15.08841950165503
STARLINK-3843           
1 52341U 22045L   25100.76908152  .00000526  00000+0  51132-4 0  9992
2 52341  53.2180 263.6099 0001435  88.0524 272.0633 15.08840732165385
STARLINK-3850           
1 52342U 22045M   25100.73690584 -.00002358  00000+0 -13013-3 0  9999
2 52342  53.2157 253.9185 0001371  83.4792 276.6356 15.08827784165512
STARLINK-3849           
1 52343U 22045N   25100.67340562  .00001867  00000+0  13541-3 0  9999
2 52343  53.2173 264.0900 0001680 101.5351 258.5830 15.08833053165371
STARLINK-3851           
1 52344U 22045P   25100.79209688 -.00000377  00000+0 -55831-5 0  9993
2 52344  53.2165 253.6206 0001269  89.2185 270.8953 15.08837169165528
STARLINK-3852           
1 52345U 22045Q   25101.15002895  .00000260  00000+0  34436-4 0  9992
2 52345  53.2167 252.1145 0001262  94.1041 266.0096 15.08832403165561
STARLINK-3812           
1 52346U 22045R   25100.78569279 -.00000489  00000+0 -12664-4 0  9999
2 52346  53.2171 253.5921 0001370  91.5409 268.5740 15.08832824165529
STARLINK-3826           
1 52347U 22045S   25101.12792808  .00000998  00000+0  80819-4 0  9995
2 52347  53.2182 252.0555 0001935  87.9558 272.1656 15.08840047165578
STARLINK-3829           
1 52348U 22045T   25100.71113242  .00000181  00000+0  29438-4 0  9993
2 52348  53.2171 253.9175 0001297  96.9000 263.2140 15.08834100165514
STARLINK-3819           
1 52349U 22045U   25100.72217588 -.00000623  00000+0 -21095-4 0  9997
2 52349  53.2181 253.8701 0001140  85.0406 275.0716 15.08829346165512
STARLINK-3754           
1 52350U 22045V   25100.70744513 -.00000085  00000+0  12747-4 0  9995
2 52350  53.2165 253.9370 0001231  88.6567 271.4567 15.08838429165513
STARLINK-3838           
1 52352U 22045X   25100.69640873 -.00000546  00000+0 -16248-4 0  9992
2 52352  53.2160 253.9856 0001113  89.8434 270.2685 15.08840143165518
